NORAD_CAT_ID,OBJECT_NAME,OBJECT_TYPE,EPOCH,MEAN_MOTION,ECCENTRICITY,INCLINATION,RA_OF_ASC_NODE,ARG_OF_PERICENTER,MEAN_ANOMALY,BSTAR,MEAN_MOTION_DOT,MEAN_MOTION_DDOT,TLE_LINE0,TLE_LINE1,TLE_LINE2,SEMIMAJOR_AXIS,PERIOD,APOGEE,PERIGEE,DECAYED
52859.0,STARLINK-4196,PAYLOAD,2023-04-23 02:47:27,15.08842532,0.0001162,53.2183,64.8191,116.4524,243.6588,0.00015602,2.196e-05,0.0,0 STARLINK-4196,1 52859U 22062AF  23113.11629031  .00002196  00000-0  15602-3 0  9999,2 52859  53.2183  64.8191 0001162 116.4524 243.6588 15.08842532 47178,6917.873,95.437,540.542,538.934,0.0
52859.0,STARLINK-4196,PAYLOAD,2023-04-23 04:22:50,15.08841562,0.0001058,53.2182,64.5221,110.3805,249.7301,0.00021598,3.151e-05,0.0,0 STARLINK-4196,1 52859U 22062AF  23113.18252943  .00003151  00000-0  21598-3 0  9993,2 52859  53.2182  64.5221 0001058 110.3805 249.7301 15.08841562 47180,6917.876,95.437,540.473,539.009,0.0
52859.0,STARLINK-4196,PAYLOAD,2023-04-24 05:48:59,15.08872516,0.0001301,53.2195,59.7649,87.133,272.9811,0.00017431,2.49e-05,0.0,0 STARLINK-4196,1 52859U 22062AF  23114.24235142  .00002490  00000-0  17431-3 0  9999,2 52859  53.2195  59.7649 0001301  87.1330 272.9811 15.08872516 47344,6917.781,95.435,540.546,538.746,0.0
52859.0,STARLINK-4196,PAYLOAD,2023-04-25 02:28:59,15.0886606,0.000162,53.2183,55.8946,107.4834,252.6336,0.00029315,4.384e-05,0.0,0 STARLINK-4196,1 52859U 22062AF  23115.10346834  .00004384  00000-0  29315-3 0  9994,2 52859  53.2183  55.8946 0001620 107.4834 252.6336 15.08866060 47969,6917.801,95.436,540.786,538.545,0.0
52859.0,STARLINK-4196,PAYLOAD,2023-04-25 05:39:45,15.08867339,0.000164,53.2186,55.2998,107.8008,252.3163,0.00030602,4.589e-05,0.0,0 STARLINK-4196,1 52859U 22062AF  23115.23594707  .00004589  00000-0  30602-3 0  9990,2 52859  53.2186  55.2998 0001640 107.8008 252.3163 15.08867339 47495,6917.797,95.436,540.796,538.527,0.0
52859.0,STARLINK-4196,PAYLOAD,2023-04-26 05:30:36,15.08809962,0.0001418,53.2189,50.8439,71.2202,288.8944,-0.00049255,-8.112e-05,0.0,0 STARLINK-4196,1 52859U 22062AF  23116.22958689 -.00008112  00000-0 -49255-3 0  9995,2 52859  53.2189  50.8439 0001418  71.2202 288.8944 15.08809962 47648,6917.972,95.439,540.818,538.856,0.0
52859.0,STARLINK-4196,PAYLOAD,2023-04-27 02:10:36,15.08834122,9.06e-05,53.2178,46.9789,94.4166,265.693,-0.00017071,-3.003e-05,0.0,0 STARLINK-4196,1 52859U 22062AF  23117.09070345 -.00003003  00000-0 -17071-3 0  9990,2 52859  53.2178  46.9789 0000906  94.4166 265.6930 15.08834122 48260,6917.898,95.438,540.39,539.137,0.0
52859.0,STARLINK-4196,PAYLOAD,2023-04-27 19:39:50,15.08828616,9.71e-05,53.2189,43.7063,92.7893,267.321,0.0005151,7.917e-05,0.0,0 STARLINK-4196,1 52859U 22062AF  23117.81933934  .00007917  00000-0  51510-3 0  9994,2 52859  53.2189  43.7063 0000971  92.7893 267.3210 15.08828616 48375,6917.915,95.438,540.452,539.108,0.0
52859.0,STARLINK-4196,PAYLOAD,2023-04-28 05:12:09,15.08856448,0.0001038,53.2172,41.9228,102.4418,257.669,0.00080182,0.00012502,0.0,0 STARLINK-4196,1 52859U 22062AF  23118.21677807  .00012502  00000-0  80182-3 0  9996,2 52859  53.2172  41.9228 0001038 102.4418 257.6690 15.08856448 48432,6917.83,95.437,540.413,538.977,0.0
52859.0,STARLINK-4196,PAYLOAD,2023-04-29 01:52:10,15.08848175,0.0001085,53.2174,38.0594,102.9493,257.1621,-1.6882e-05,-5.57e-06,0.0,0 STARLINK-4196,1 52859U 22062AF  23119.07789748 -.00000557  00000-0 -16882-4 0  9995,2 52859  53.2174  38.0594 0001085 102.9493 257.1621 15.08848175 48568,6917.855,95.437,540.471,538.97,0.0
52859.0,STARLINK-4196,PAYLOAD,2023-04-30 03:18:20,15.08852536,0.0001,53.2169,33.3009,101.2808,258.8296,0.00013353,1.839e-05,0.0,0 STARLINK-4196,1 52859U 22062AF  23120.13773208  .00001839  00000-0  13353-3 0  9999,2 52859  53.2169  33.3009 0001000 101.2808 258.8296 15.08852536 48720,6917.842,95.437,540.399,539.015,0.0
52859.0,STARLINK-4196,PAYLOAD,2023-04-30 17:36:48,15.08839696,0.0001276,53.217,30.6251,86.2024,273.9114,0.0001157,1.554e-05,0.0,0 STARLINK-4196,1 52859U 22062AF  23120.73389974  .00001554  00000-0  11570-3 0  9991,2 52859  53.2170  30.6251 0001276  86.2024 273.9114 15.08839696 48817,6917.881,95.438,540.629,538.864,0.0
52859.0,STARLINK-4196,PAYLOAD,2023-05-01 03:09:07,15.08837403,9.72e-05,53.2169,28.8399,92.9999,267.1104,8.4149e-05,1.052e-05,0.0,0 STARLINK-4196,1 52859U 22062AF  23121.13134169  .00001052  00000-0  84149-4 0  9996,2 52859  53.2169  28.8399 0000972  92.9999 267.1104 15.08837403 48384,6917.888,95.438,540.426,539.081,0.0
52859.0,STARLINK-4196,PAYLOAD,2023-05-01 22:13:45,15.08842019,9.04e-05,53.2173,25.2697,95.8601,264.2494,0.0001392,1.928e-05,0.0,0 STARLINK-4196,1 52859U 22062AF  23121.92622142  .00001928  00000-0  13920-3 0  9996,2 52859  53.2173  25.2697 0000904  95.8601 264.2494 15.08842019 48501,6917.874,95.437,540.365,539.114,0.0
52859.0,STARLINK-4196,PAYLOAD,2023-05-01 23:49:08,15.0884406,9.69e-05,53.2173,24.9728,99.0652,261.045,0.00019078,2.75e-05,0.0,0 STARLINK-4196,1 52859U 22062AF  23121.99246084  .00002750  00000-0  19078-3 0  9994,2 52859  53.2173  24.9728 0000969  99.0652 261.0450 15.08844060 49006,6917.868,95.437,540.403,539.063,0.0
52859.0,STARLINK-4196,PAYLOAD,2023-05-02 20:29:09,15.08848524,9.65e-05,53.2173,21.107,85.5946,274.5157,0.00028101,4.188e-05,0.0,0 STARLINK-4196,1 52859U 22062AF  23122.85357918  .00004188  00000-0  28101-3 0  9993,2 52859  53.2173  21.1070 0000965  85.5946 274.5157 15.08848524 48648,6917.854,95.437,540.387,539.052,0.0
52859.0,STARLINK-4196,PAYLOAD,2023-05-02 23:39:55,15.08851585,9.76e-05,53.2174,20.5126,98.8391,261.2712,0.00032833,4.943e-05,0.0,0 STARLINK-4196,1 52859U 22062AF  23122.98605723  .00004943  00000-0  32833-3 0  9993,2 52859  53.2174  20.5126 0000976  98.8391 261.2712 15.08851585 48660,6917.845,95.437,540.385,539.035,0.0
52859.0,STARLINK-4196,PAYLOAD,2023-05-03 20:19:56,15.08838877,0.0001258,53.2186,16.6447,111.8539,248.2587,-2.2461e-05,-6.45e-06,0.0,0 STARLINK-4196,1 52859U 22062AF  23123.84718027 -.00000645  00000-0 -22461-4 0  9995,2 52859  53.2186  16.6447 0001258 111.8539 248.2587 15.08838877 49282,6917.884,95.438,540.619,538.879,0.0
52859.0,STARLINK-4196,PAYLOAD,2023-05-03 21:55:19,15.08838973,0.0001066,53.2173,16.3477,108.4358,251.675,-8.0603e-06,-4.16e-06,0.0,0 STARLINK-4196,1 52859U 22062AF  23123.91342110 -.00000416  00000-0 -80603-5 0  9998,2 52859  53.2173  16.3477 0001066 108.4358 251.6750 15.08838973 48800,6917.884,95.438,540.486,539.011,0.0
52859.0,STARLINK-4196,PAYLOAD,2023-05-04 02:41:28,15.0884384,9.3e-05,53.2165,15.4589,82.4736,277.6362,9.5905e-05,1.239e-05,0.0,0 STARLINK-4196,1 52859U 22062AF  23124.11213998  .00001239  00000-0  95905-4 0  9994,2 52859  53.2165  15.4589 0000930  82.4736 277.6362 15.08843840 48834,6917.869,95.437,540.377,539.09,0.0
52859.0,STARLINK-4196,PAYLOAD,2023-05-04 21:46:06,15.08841529,9.83e-05,53.2173,11.8886,88.3385,271.772,2.0664e-05,4.1e-07,0.0,0 STARLINK-4196,1 52859U 22062AF  23124.90702131  .00000041  00000-0  20664-4 0  9993,2 52859  53.2173  11.8886 0000983  88.3385 271.7720 15.08841529 48954,6917.876,95.437,540.421,539.061,0.0
52859.0,STARLINK-4196,PAYLOAD,2023-05-04 23:21:29,15.08845297,9.64e-05,53.2163,11.5935,82.9777,277.1325,5.9846e-05,6.65e-06,0.0,0 STARLINK-4196,1 52859U 22062AF  23124.97325957  .00000665  00000-0  59846-4 0  9993,2 52859  53.2163  11.5935 0000964  82.9777 277.1325 15.08845297 49452,6917.864,95.437,540.396,539.062,0.0
52859.0,STARLINK-4196,PAYLOAD,2023-05-05 21:36:53,15.0883863,0.0001013,53.2159,7.4311,80.9791,279.1316,8.2716e-05,1.029e-05,0.0,0 STARLINK-4196,1 52859U 22062AF  23125.90062493  .00001029  00000-0  82716-4 0  9997,2 52859  53.2159   7.4311 0001013  80.9791 279.1316 15.08838630 49106,6917.885,95.438,540.45,539.049,0.0
52859.0,STARLINK-4196,PAYLOAD,2023-05-05 23:12:17,15.08841032,9.87e-05,53.2161,7.1332,80.217,279.8934,9.4466e-05,1.216e-05,0.0,0 STARLINK-4196,1 52859U 22062AF  23125.96686376  .00001216  00000-0  94466-4 0  9998,2 52859  53.2161   7.1332 0000987  80.2170 279.8934 15.08841032 49600,6917.877,95.437,540.425,539.059,0.0
52859.0,STARLINK-4196,PAYLOAD,2023-05-07 02:13:49,15.08853893,0.0001059,53.2157,2.0775,82.0917,278.0196,0.00015723,2.216e-05,0.0,0 STARLINK-4196,1 52859U 22062AF  23127.09293753  .00002216  00000-0  15723-3 0  9996,2 52859  53.2157   2.0775 0001059  82.0917 278.0196 15.08853893 49777,6917.838,95.437,540.436,538.97,0.0
52859.0,STARLINK-4196,PAYLOAD,2023-05-07 21:18:28,15.08836028,0.0001353,53.2167,358.5029,122.3499,237.7625,-5.2093e-05,-1.117e-05,0.0,0 STARLINK-4196,1 52859U 22062AF  23127.88782679 -.00001117  00000-0 -52093-4 0  9996,2 52859  53.2167 358.5029 0001353 122.3499 237.7625 15.08836028 49892,6917.893,95.438,540.694,538.822,0.0
52859.0,STARLINK-4196,PAYLOAD,2023-05-08 21:09:15,15.08848843,0.0001111,53.2162,354.0473,81.8967,278.2151,0.00018787,2.704e-05,0.0,0 STARLINK-4196,1 52859U 22062AF  23128.88142760  .00002704  00000-0  18787-3 0  9990,2 52859  53.2162 354.0473 0001111  81.8967 278.2151 15.08848843 49557,6917.853,95.437,540.487,538.95,0.0
52859.0,STARLINK-4196,PAYLOAD,2023-05-08 22:44:38,15.08850367,0.0001167,53.2156,353.7505,84.384,275.7285,0.00036808,5.577e-05,0.0,0 STARLINK-4196,1 52859U 22062AF  23128.94766848  .00005577  00000-0  36808-3 0  9991,2 52859  53.2156 353.7505 0001167  84.3840 275.7285 15.08850367 50052,6917.849,95.437,540.521,538.906,0.0
52859.0,STARLINK-4196,PAYLOAD,2023-05-09 21:00:02,15.08844871,0.0001278,53.2158,349.5869,89.437,270.6769,0.00019463,2.811e-05,0.0,0 STARLINK-4196,1 52859U 22062AF  23129.87502992  .00002811  00000-0  19463-3 0  9998,2 52859  53.2158 349.5869 0001278  89.4370 270.6769 15.08844871 49701,6917.866,95.437,540.615,538.846,0.0
52859.0,STARLINK-4196,PAYLOAD,2023-05-10 19:15:26,15.08845596,0.0001191,53.2169,345.4239,96.649,263.4638,9.9016e-05,1.289e-05,0.0,0 STARLINK-4196,1 52859U 22062AF  23130.80238827  .00001289  00000-0  99016-4 0  9997,2 52859  53.2169 345.4239 0001191  96.6490 263.4638 15.08845596 49841,6917.863,95.437,540.552,538.904,0.0
